OBJECT_NAME,OBJECT_ID,EPOCH,MEAN_MOTION,ECCENTRICITY,INCLINATION,RA_OF_ASC_NODE,ARG_OF_PERICENTER,MEAN_ANOMALY,EPHEMERIS_TYPE,CLASSIFICATION_TYPE,NORAD_CAT_ID,ELEMENT_SET_NO,REV_AT_EPOCH,BSTAR,MEAN_MOTION_DOT,MEAN_MOTION_DDOT
CUBEBUG-2 (LO-74),2013-066AA,2026-07-03T08:09:42.775488,14.93897760,.00565719,97.8916,133.3880,335.6744,24.1807,0,U,39440,999,67940,.49417308E-3,.5361E-4,0
FUNCUBE-1 (AO-73),2013-066AE,2026-07-02T19:58:49.417824,15.09682031,.00373159,97.8285,155.6072,147.9891,212.3615,0,U,39444,999,68202,.50719688E-3,.8238E-4,0
UWE-3,2013-066AG,2026-07-02T20:32:11.323104,14.97140347,.00471888,97.8709,140.0374,267.5766,92.0052,0,U,39446,999,67992,.33854688E-3,.3935E-4,0
UNISAT-6,2014-033C,2026-07-02T15:56:14.012448,14.88321393,.00452357,97.7898,336.1049,19.2407,341.0506,0,U,40012,999,64846,.30037056E-3,.2775E-4,0
DUCHIFAT-1,2014-033M,2026-07-02T02:25:15.934368,15.67889029,.00000967,98.0445,244.3920,180.5510,179.5749,0,U,40021,999,65808,.12874894E-2,.143832E-2,0
QB50P1,2014-033R,2026-07-02T18:26:57.033024,15.18500631,.00094377,98.0961,196.0094,162.0321,198.1247,0,U,40025,999,65539,.46934796E-3,.962E-4,0
LILACSAT-2,2015-049K,2026-07-03T15:39:00.319392,15.52001002,.00072943,97.4621,222.1234,177.3895,182.7397,0,U,40908,999,59830,.32992897E-3,.19791E-3,0
FOX-1A (AO-85),2015-058D,2026-07-02T20:18:55.888416,14.91035738,.01314684,64.7736,230.3176,50.5060,310.7590,0,U,40967,999,11590,.25057654E-3,.2755E-4,0
CAS-2T & KS-1Q,2016-066G,2026-07-02T16:26:51.613440,14.44744917,.03427917,98.3817,259.2443,82.6153,281.3851,0,U,41847,999,50703,.2477234E-3,.1723E-4,0
RADFXSAT (FOX-1B),2017-073E,2026-07-02T03:45:10.344672,15.12917223,.01481852,97.4681,50.0656,277.0157,81.4241,0,U,43017,999,46765,.33553019E-3,.7671E-4,0
DIWATA-2B,2018-084H,2026-07-03T15:23:35.096352,15.00524271,.00131133,98.1203,21.5680,119.3504,240.9030,0,U,43678,999,41868,.20123992E-3,.2475E-4,0
ES'HAIL 2,2018-090A,2026-07-02T20:28:07.840128,1.00273206,.00022569,0.0179,35.7111,101.6332,116.3646,0,U,43700,999,2783,0,.155E-5,0
FOX-1CLIFF (AO-95),2018-099N,2026-07-02T14:37:55.530336,15.27038658,.00069302,97.4375,243.8014,294.3124,65.7391,0,U,43770,999,41557,.43513863E-3,.11484E-3,0
ITASAT,2018-099AE,2026-07-02T08:51:25.431840,15.19245229,.0010879,97.4016,234.5787,302.6059,57.4125,0,U,43786,999,41521,.38656E-3,.8093E-4,0
JY1SAT (JO-97),2018-099AX,2026-07-02T14:55:37.712928,15.34152879,.00056509,97.4118,246.5140,198.6681,161.4355,0,U,43803,999,41599,.5420785E-3,.17868E-3,0
UWE-4,2018-111E,2026-07-02T17:50:18.256704,15.47102682,.00044126,97.5847,112.8616,254.2449,105.8314,0,U,43880,999,41318,.6510944E-3,.32995E-3,0
TIANYAN 01,2019-093C,2026-07-03T12:52:07.502880,14.86543846,.00145348,97.7529,256.3696,38.1122,322.1119,0,U,44881,999,35384,.69952585E-4,.567E-5,0
RS-44 & BREEZE-KM R/B,2019-096E,2026-07-02T19:08:46.178016,12.79748942,.02185341,82.5226,329.3312,107.8328,254.6742,0,U,44909,999,30434,-.12502786E-4,.1E-6,0
SALSAT,2020-068K,2026-07-02T06:06:00.402048,15.30013367,.0008038,97.8847,187.2381,243.7769,116.2645,0,U,46495,999,31766,.29987E-3,.8637E-4,0
XW-3 (CAS-9),2021-131B,2026-07-03T15:29:49.688736,14.41372876,.00051883,98.4992,276.9468,59.1467,301.0231,0,U,50466,999,23748,.17944939E-3,.537E-5,0
GREENCUBE (IO-117),2022-080E,2026-06-30T17:23:31.202880,6.42583253,.00089588,70.1437,293.5372,286.6703,73.2973,0,U,53109,999,9293,0,-.3E-7,0
UMKA 1 (RS40S),2023-091G,2026-07-02T19:38:21.475968,15.21002545,.00140579,97.5039,242.4563,69.3438,290.9303,0,U,57172,999,16638,.3405324E-3,.7503E-4,0
CUBESX-HSE 3 (RS42S),2023-091N,2026-07-02T18:58:20.589312,15.31612828,.00109955,97.5082,249.5780,45.1309,315.0823,0,U,57178,999,16681,.48570135E-3,.14786E-3,0
MONITOR-3 (RS58S),2023-091Q,2026-07-02T20:23:42.237888,15.28162557,.0012254,97.5073,247.4131,51.4417,308.7918,0,U,57180,999,16668,.48670065E-3,.13323E-3,0
MONITOR-4 (RS57S),2023-091S,2026-07-02T19:52:17.713920,15.28246854,.00122707,97.5067,247.3631,51.9563,308.2781,0,U,57182,999,16668,.44726411E-3,.12267E-3,0
MONITOR-2 (RS39S),2023-091U,2026-07-02T19:02:35.450304,15.19056795,.00124184,97.5060,241.9761,63.6128,296.6380,0,U,57184,999,16632,.27855117E-3,.5781E-4,0
SVYATOBOR 1 (RS60S),2023-091X,2026-07-02T18:56:27.455424,15.26882485,.00099997,97.5080,247.6943,46.5858,313.6212,0,U,57187,999,16669,.39789412E-3,.10451E-3,0
VIZARD-METEO (RS38S),2023-091Z,2026-07-02T20:17:04.725312,15.36531076,.00068929,97.5083,253.6485,27.0147,333.1454,0,U,57189,999,16709,.54973573E-3,.19557E-3,0
POLYTECH-UNIVERSE 3 (RS46S),2023-091AB,2026-07-02T19:38:44.314944,15.19267737,.00169186,97.5036,241.5053,77.5035,282.8091,0,U,57191,999,16632,.30934117E-3,.6479E-4,0
UTMN 2 (RS27S),2023-091AP,2026-07-02T19:11:29.153472,15.32437868,.00080621,97.5079,251.2400,34.8491,325.3277,0,U,57203,999,16693,.46859296E-3,.14623E-3,0
